KUIPER-00176            
1 65788U 25217AC  25303.91668981  .00067346  00000+0  17960-2 0  9992
2 65788  51.8706 271.2975 0002514 114.1609 100.2323 15.37518314  5037
KUIPER-00101            
1 65947U 25228A   25303.29472547  .00207797  00000+0  58992-2 0  9999
2 65947  51.8785 229.8667 0005735 196.5552 163.5247 15.34858370  3746
KUIPER-00113            
1 65948U 25228B   25303.94309585  .00041100  00000+0  11966-2 0  9997
2 65948  51.8790 226.7156 0006244 190.5401 169.5455 15.34988695  3847
KUIPER-00117            
1 65949U 25228C   25303.87844957  .00040635  00000+0  11852-2 0  9993
2 65949  51.8787 227.0320 0006042 190.9442 169.1414 15.34940422  3832
KUIPER-00121            
1 65950U 25228D   25303.88506348  .00037958  00000+0  11290-2 0  9995
2 65950  51.8793 227.0782 0005535 208.4261 151.6423 15.34357172  3833
KUIPER-00122            
1 65951U 25228E   25303.88640342  .00052904  00000+0  15724-2 0  9993
2 65951  51.8787 227.0807 0006215 214.3435 145.7150 15.34226047  3837
KUIPER-00123            
1 65952U 25228F   25303.88541188 -.00065888  00000+0 -19752-2 0  9994
2 65952  51.8780 227.0732 0005437 200.9903 159.0860 15.34044388  3836
KUIPER-00124            
1 65953U 25228G   25303.88691468  .00054256  00000+0  16152-2 0  9998
2 65953  51.8790 227.0882 0005481 218.1009 141.9590 15.34167156  3830
